INTELSAT 31 (IS-31)     
1 41581C 16035A   22122.00000000 -.00000064  00000-0  00000-0 0  1222
2 41581   0.0105 250.0883 0002310 333.9163 260.8357  1.00271245    11
INTELSAT 36 (IS-36)     
1 41747C 16053A   22118.00000000  .00000067  00000-0  00000-0 0  1188
2 41747   0.0114 306.3407 0001282  36.2984 301.8106  1.00270999    16
INTELSAT 36 (IS-36) [PM]
1 41747C 16053A   22118.32648148 -.00003807  00000-0  00000-0 0  1180
2 41747   0.0100 301.1372 0001330  36.9571  64.2065  1.00271713    17
INTELSAT 36 (IS-36)     
1 41747C 16053A   22122.00000000  .00000016  00000-0  00000-0 0  1222
2 41747   0.0155 325.6534 0001586  12.1290 310.6107  1.00271565    15
INTELSAT 33E            
1 41748C 16053B   22118.00000000  .00000132  00000-0  00000-0 0  1182
2 41748   0.0178 312.0970 0001440  91.0685 232.7616  1.00272145    12
INTELSAT 33E            
1 41748C 16053B   22122.00000000  .00000144  00000-0  00000-0 0  1225
2 41748   0.0199 314.8812 0001347  90.6858 234.3224  1.00274182    19
INTELSAT 33E        [PM]
1 41748C 16053B   22124.20303241  .00000139  00000-0  00000-0 0  1248
2 41748   0.0186 335.1392 0001463  65.8673 314.1658  1.00270550    15
INTELSAT 32E            
1 41945C 17007B   22118.00000000 -.00004274  00000-0  00000-0 0  1183
2 41945   0.0000 190.3808 0000243  94.5159 247.8598  1.00269849    19
INTELSAT 32E            
1 41945C 17007B   22122.00000000 -.00000181  00000-0  00000-0 0  1226
2 41945   0.0001 288.5621 0000702  11.7563 236.4053  1.00271225    14
INTELSAT 32E        [PM]
1 41945C 17007B   22125.30011574 -.00000196  00000-0  00000-0 0  1259
2 41945   0.0334  98.8434 0000873 199.8529 349.3078  1.00274760    14
INTELSAT 35E            
1 42818C 17041A   22118.00000000 -.00000147  00000-0  00000-0 0  1186
2 42818   0.0107 210.1839 0001475 198.1722 133.1030  1.00271148    10
INTELSAT 35E            
1 42818C 17041A   22122.00000000 -.00000158  00000-0  00000-0 0  1228
2 42818   0.0090 240.6212 0001464 165.2479 139.5233  1.00271114    14
INTELSAT 35E        [PM]
1 42818C 17041A   22123.88241898 -.00000146  00000-0  00000-0 0  1235
2 42818   0.0067 234.1730 0001538 164.1369 106.6026  1.00274334    11
INTELSAT 37E            
1 42950C 17059A   22118.00000000 -.00000063  00000-0  00000-0 0  1189
2 42950   0.0019 244.7990 0002429 155.2299 157.9053  1.00272233    18
INTELSAT 37E            
1 42950C 17059A   22122.00000000 -.00000049  00000-0  00000-0 0  1223
2 42950   0.0073 277.5820 0002339 123.5985 160.7065  1.00273000    12
INTELSAT 37E        [PM]
1 42950C 17059A   22122.79513889 -.00000055  00000-0  00000-0 0  1220
2 42950   0.0052 280.4933 0002318 120.8728  87.5577  1.00272899    18
INTELSAT 37E        [PM]
1 42950C 17059A   22128.23333333 -.00000081  00000-0  00000-0 0  1284
2 42950   0.0080 268.5896 0002319 140.1153 243.3469  1.00272109    18
AZERSPACE 2 (IS-38)     
1 43632C 18074A   22118.00000000 -.00003207  00000-0  00000-0 0  1188
2 43632   0.0011 195.8881 0001293 212.6585 212.4969  1.00271711    10
AZERSPACE 2 (IS-38)     
1 43632C 18074A   22122.00000000  .00000191  00000-0  00000-0 0  1226
2 43632   0.0000 273.0517 0001269 121.5733 230.3666  1.00271263    14
HORIZONS-3E             
1 43633C 18074B   22118.00000000  .00000052  00000-0  00000-0 0  1183
2 43633   0.0109 142.6488 0001031 191.8181  50.4782  1.00269256    16
HORIZONS-3E             
1 43633C 18074B   22122.00000000  .00000059  00000-0  00000-0 0  1220
2 43633   0.0039 349.8948 0001231 337.6836  61.3139  1.00269370    13
INTELSAT 39 (IS-39)     
1 44476C 19049B   22118.00000000  .00000108  00000-0  00000-0 0  1184
2 44476   0.0041 256.3489 0000279 345.7487  35.7840  1.00271063    13
INTELSAT 39 (IS-39)     
1 44476C 19049B   22122.00000000  .00000084  00000-0  00000-0 0  1227
2 44476   0.0061 283.4990 0000550 352.3247   6.0132  1.00271991    18
INTELSAT 39 (IS-39) [PM]
1 44476C 19049B   22124.40994213  .00000116  00000-0  00000-0 0  1249
2 44476   0.0058 286.0246 0000501 359.6470 146.1215  1.00272799    16
GALAXY 30 (G-30)        
1 46114C 20056C   22118.00000000  .00000121  00000-0  00000-0 0  1180
2 46114   0.0062 256.6931 0001780 146.8441  47.3987  1.00271753    17
GALAXY 30 (G-30)        
1 46114C 20056C   22122.00000000  .00000102  00000-0  00000-0 0  1229
2 46114   0.0406  84.0222 0001816 317.8101  53.0626  1.00273656    16
GALAXY 30 (G-30)    [PM]
1 46114C 20056C   22124.60694444  .00000101  00000-0  00000-0 0  1249
2 46114   0.0055 286.7054 0001831 116.5075 272.7670  1.00271107    19
